[{"OBJECT_NAME":"STARLINK-30597","OBJECT_ID":"2023-160D","EPOCH":"2026-03-09T21:56:06.562176","MEAN_MOTION":15.26748428,"ECCENTRICITY":0.00010278,"INCLINATION":43.0011,"RA_OF_ASC_NODE":76.302,"ARG_OF_PERICENTER":248.1499,"MEAN_ANOMALY":111.9243,"EPHEMERIS_TYPE":0,"CLASSIFICATION_TYPE":"U","NORAD_CAT_ID":58078,"ELEMENT_SET_NO":999,"REV_AT_EPOCH":13298,"BSTAR":0.00075358598,"MEAN_MOTION_DOT":0.00020014,"MEAN_MOTION_DDOT":0},{"OBJECT_NAME":"OTTER","OBJECT_ID":"2025-009Q","EPOCH":"2026-03-09T17:21:07.902432","MEAN_MOTION":15.27809545,"ECCENTRICITY":0.00035728,"INCLINATION":97.4065,"RA_OF_ASC_NODE":151.3812,"ARG_OF_PERICENTER":310.771,"MEAN_ANOMALY":49.3219,"EPHEMERIS_TYPE":0,"CLASSIFICATION_TYPE":"U","NORAD_CAT_ID":62623,"ELEMENT_SET_NO":999,"REV_AT_EPOCH":6372,"BSTAR":0.00045151206,"MEAN_MOTION_DOT":0.00012198,"MEAN_MOTION_DDOT":0}]
